[{"OBJECT_NAME":"ZY-1 02E","OBJECT_ID":"2021-131A","EPOCH":"2026-03-09T22:55:04.304352","MEAN_MOTION":14.35395613,"ECCENTRICITY":0.00020992,"INCLINATION":98.4486,"RA_OF_ASC_NODE":148.1308,"ARG_OF_PERICENTER":78.1274,"MEAN_ANOMALY":282.0147,"EPHEMERIS_TYPE":0,"CLASSIFICATION_TYPE":"U","NORAD_CAT_ID":50465,"ELEMENT_SET_NO":999,"REV_AT_EPOCH":22018,"BSTAR":4.2056084e-5,"MEAN_MOTION_DOT":7.8e-7,"MEAN_MOTION_DDOT":0},{"OBJECT_NAME":"CZ-4 DEB","OBJECT_ID":"1990-081BV","EPOCH":"2026-03-09T13:35:04.577280","MEAN_MOTION":14.36582952,"ECCENTRICITY":0.00121525,"INCLINATION":98.5431,"RA_OF_ASC_NODE":69.246,"ARG_OF_PERICENTER":200.2955,"MEAN_ANOMALY":287.3924,"EPHEMERIS_TYPE":0,"CLASSIFICATION_TYPE":"U","NORAD_CAT_ID":20912,"ELEMENT_SET_NO":999,"REV_AT_EPOCH":83525,"BSTAR":0.00084922044,"MEAN_MOTION_DOT":2.455e-5,"MEAN_MOTION_DDOT":0}]
